H1 CPF 01  gfz 2022 03 09 13  5682 terrasarx 
H2 0702601  6201 31698    2022 03 09 12 59 42 2022 03 14 00 00 42   120 1 1  0 0 0
H9
10 0 59648  26622.000000  0   -4030585.650   2227479.289   5113303.434
10 0 59648  26742.000000  0   -3310175.236   2069938.102   5665373.403
10 0 59648  26862.000000  0   -2535147.045   1863163.332   6117802.414
10 0 59648  26982.000000  0   -1719890.501   1609948.252   6462675.033
10 0 59648  27102.000000  0    -879425.789   1314149.462   6693966.240
10 0 59648  27222.000000  0     -29125.091    980627.306   6807639.228
10 0 59648  27342.000000  0     815567.880    615165.285   6801711.047
10 0 59648  27462.000000  0    1639417.201    224369.798   6676284.835
10 0 59648  27582.000000  0    2427668.136   -184448.441   6433548.437
10 0 59648  27702.000000  0    3166311.085   -603410.348   6077739.932
10 0 59648  27822.000000  0    3842332.734  -1024218.801   5615078.489
10 0 59648  27942.000000  0    4443949.188  -1438321.693   5053661.230
10 0 59648  28062.000000  0    4960816.485  -1837084.740   4403327.524
10 0 59648  28182.000000  0    5384216.558  -2211970.071   3675492.256
10 0 59648  28302.000000  0    5707213.684  -2554718.093   2882947.809
10 0 59648  28422.000000  0    5924775.446  -2857527.946   2039638.330
10 0 59648  28542.000000  0    6033857.008  -3113231.711   1160412.133
10 0 59648  28662.000000  0    6033447.229  -3315459.288    260754.426
10 0 59648  28782.000000  0    5924572.178  -3458787.888   -643493.451
10 0 59648  28902.000000  0    5710258.633  -3538873.589  -1536422.383
10 0 59648  29022.000000  0    5395455.043  -3552559.719  -2402344.416
10 0 59648  29142.000000  0    4986915.789  -3497961.329  -3226074.350
10 0 59648  29262.000000  0    4493050.818  -3374523.371  -3993200.091
10 0 59648  29382.000000  0    3923744.868  -3183051.691  -4690334.987
10 0 59648  29502.000000  0    3290151.079  -2925715.623  -5305348.112
10 0 59648  29622.000000  0    2604465.375  -2606023.089  -5827567.120
10 0 59648  29742.000000  0    1879688.340  -2228771.301  -6247952.961
10 0 59648  29862.000000  0    1129377.482  -1799972.619  -6559247.124
10 0 59648  29982.000000  0     367393.526  -1326755.543  -6756086.453
10 0 59648  30102.000000  0    -392352.342   -817245.780  -6835085.237
10 0 59648  30222.000000  0   -1136146.792   -280428.575  -6794886.302
10 0 59648  30342.000000  0   -1850716.142    274006.161  -6636181.682
10 0 59648  30462.000000  0   -2523457.804    835834.375  -6361701.149
10 0 59648  30582.000000  0   -3142657.567   1394481.308  -5976170.401
10 0 59648  30702.000000  0   -3697691.286   1939215.690  -5486239.124
10 0 59648  30822.000000  0   -4179209.481   2459352.477  -4900378.267
10 0 59648  30942.000000  0   -4579299.934   2944461.289  -4228744.299
10 0 59648  31062.000000  0   -4891623.927   3384575.070  -3483012.801
10 0 59648  31182.000000  0   -5111524.776   3770395.995  -2676184.772
10 0 59648  31302.000000  0   -5236105.151   4093494.147  -1822364.781
10 0 59648  31422.000000  0   -5264270.857   4346493.062   -936516.096
10 0 59648  31542.000000  0   -5196739.654   4523238.143    -34195.772
10 0 59648  31662.000000  0   -5036013.317   4618943.411    868724.767
10 0 59648  31782.000000  0   -4786312.709   4630310.750   1756348.248
10 0 59648  31902.000000  0   -4453477.463   4555618.894   2613040.868
10 0 59648  32022.000000  0   -4044832.747   4394780.917   3423715.918
10 0 59648  32142.000000  0   -3569027.413   4149368.138   4174105.849
10 0 59648  32262.000000  0   -3035848.454   3822600.065   4851017.116
10 0 59648  32382.000000  0   -2456015.718   3419301.113   5442563.779
10 0 59648  32502.000000  0   -1840961.515   2945825.116   5938374.450
10 0 59648  32622.000000  0   -1202600.830   2409949.953   6329769.725
10 0 59648  32742.000000  0    -553097.499   1820744.309   6609906.964
10 0 59648  32862.000000  0      95367.066   1188411.289   6773893.202
10 0 59648  32982.000000  0     730822.263    524109.808   6818865.855
10 0 59648  33102.000000  0    1341728.359   -160242.173   6744038.865
10 0 59648  33222.000000  0    1917184.914   -852180.533   6550716.332
10 0 59648  33342.000000  0    2447124.852  -1538921.490   6242271.509
10 0 59648  33462.000000  0    2922491.623  -2207596.968   5824092.700
10 0 59648  33582.000000  0    3335396.805  -2845496.690   5303494.518
10 0 59648  33702.000000  0    3679254.292  -3440311.589   4689595.979
10 0 59648  33822.000000  0    3948889.611  -3980374.888   3993166.358
10 0 59648  33942.000000  0    4140621.753  -4454895.825   3226439.751
10 0 59648  34062.000000  0    4252315.021  -4854180.823   2402901.367
10 0 59648  34182.000000  0    4283400.184  -5169836.609   1537048.282
10 0 59648  34302.000000  0    4234863.252  -5394949.775    644129.161
10 0 59648  34422.000000  0    4109201.740  -5524237.738   -260131.343
10 0 59648  34542.000000  0    3910351.413  -5554168.663  -1159816.999
10 0 59648  34662.000000  0    3643582.819  -5483046.579  -2039109.971
10 0 59648  34782.000000  0    3315371.231  -5311058.018  -2882576.200
10 0 59648  34902.000000  0    2933244.531  -5040281.168  -3675442.115
10 0 59648  35022.000000  0    2505611.383  -4674656.751  -4403855.742
10 0 59648  35142.000000  0    2041575.186  -4219922.535  -5055126.835
10 0 59648  35262.000000  0    1550739.860  -3683513.140  -5617941.676
10 0 59648  35382.000000  0    1043011.974  -3074429.936  -6082550.027
10 0 59648  35502.000000  0     528402.013  -2403084.189  -6440923.598
10 0 59648  35622.000000  0      16829.061  -1681115.140  -6686883.961
10 0 59648  35742.000000  0    -482066.466   -921186.938  -6816198.504
10 0 59648  35862.000000  0    -959099.278   -136768.452  -6826645.204
10 0 59648  35982.000000  0   -1405704.070    658100.588  -6718045.851
10 0 59648  36102.000000  0   -1814085.831   1449054.246  -6492268.350
10 0 59648  36222.000000  0   -2177352.620   2221653.636  -6153197.889
10 0 59648  36342.000000  0   -2489630.855   2961644.570  -5706678.377
10 0 59648  36462.000000  0   -2746160.852   3655218.046  -5160422.077
10 0 59648  36582.000000  0   -2943371.311   4289268.349  -4523888.353
10 0 59648  36702.000000  0   -3078931.279   4851644.645  -3808130.092
10 0 59648  36822.000000  0   -3151776.734   5331389.043  -3025609.614
10 0 59648  36942.000000  0   -3162112.057   5718956.702  -2189989.266
10 0 59648  37062.000000  0   -3111386.980   6006415.710  -1315896.775
10 0 59648  37182.000000  0   -3002246.295   6187618.107   -418667.440
10 0 59648  37302.000000  0   -2838455.801   6258336.791    485927.879
10 0 59648  37422.000000  0   -2624806.244   6216368.735   1381967.774
10 0 59648  37542.000000  0   -2366992.679   6061594.740   2253672.281
10 0 59648  37662.000000  0   -2071475.450   5795994.998   3085689.889
10 0 59648  37782.000000  0   -1745327.778   5423623.028   3863374.471
10 0 59648  37902.000000  0   -1396073.403   4950538.907   4573047.761
10 0 59648  38022.000000  0   -1031517.552   4384702.851   5202242.550
10 0 59648  38142.000000  0    -659574.616   3735831.997   5739920.547
10 0 59648  38262.000000  0    -288099.511   3015225.202   6176662.469
10 0 59648  38382.000000  0      75275.884   2235558.315   6504827.568
10 0 59648  38502.000000  0     423297.242   1410656.670   6718681.037
10 0 59648  38622.000000  0     749231.040    555246.462   6814488.738
10 0 59648  38742.000000  0    1046993.305   -315308.447   6790577.218
10 0 59648  38862.000000  0    1311262.234  -1185281.305   6647362.196
10 0 59648  38982.000000  0    1537573.267  -2038866.212   6387342.129
10 0 59648  39102.000000  0    1722394.861  -2860465.076   6015058.038
10 0 59648  39222.000000  0    1863183.883  -3634974.452   5537018.998
10 0 59648  39342.000000  0    1958419.411  -4348066.277   4961593.295
10 0 59648  39462.000000  0    2007615.024  -4986456.649   4298867.642
10 0 59648  39582.000000  0    2011310.254  -5538161.108   3560476.400
10 0 59648  39702.000000  0    1971038.915  -5992729.229   2759398.714
10 0 59648  39822.000000  0    1889274.774  -6341450.791   1909729.451
10 0 59648  39942.000000  0    1769358.390  -6577530.228   1026428.704
10 0 59648  40062.000000  0    1615404.612  -6696225.988    125053.187
10 0 59648  40182.000000  0    1432193.007  -6694950.771   -778525.296
10 0 59648  40302.000000  0    1225043.507  -6573327.393  -1668411.137
10 0 59648  40422.000000  0     999680.662  -6333196.591  -2528972.964
10 0 59648  40542.000000  0     762091.519  -5978581.577  -3345124.223
10 0 59648  40662.000000  0     518382.031  -5515609.946  -4102590.836
10 0 59648  40782.000000  0     274632.505  -4952395.297  -4788160.701
10 0 59648  40902.000000  0      36756.934  -4298882.313  -5389909.395
10 0 59648  41022.000000  0    -189630.267  -3566660.336  -5897400.124
10 0 59648  41142.000000  0    -399337.508  -2768748.931  -6301854.692
10 0 59648  41262.000000  0    -587706.837  -1919361.141  -6596293.981
10 0 59648  41382.000000  0    -750710.648  -1033649.057  -6775647.046
10 0 59648  41502.000000  0    -885032.649   -127436.079  -6836829.825
10 0 59648  41622.000000  0    -988131.770    783061.140  -6778791.606
10 0 59648  41742.000000  0   -1058288.627   1681515.248  -6602530.460
10 0 59648  41862.000000  0   -1094633.759   2551773.533  -6311077.736
10 0 59648  41982.000000  0   -1097157.116   3378141.898  -5909452.870
10 0 59648  42102.000000  0   -1066699.149   4145665.557  -5404586.378
10 0 59648  42222.000000  0   -1004922.822   4840399.813  -4805211.276
10 0 59648  42342.000000  0    -914267.722   5449668.319  -4121723.501
10 0 59648  42462.000000  0    -797886.397   5962302.366  -3366010.851
10 0 59648  42582.000000  0    -659563.767   6368855.480  -2551253.663
10 0 59648  42702.000000  0    -503621.158   6661789.794  -1691699.727
10 0 59648  42822.000000  0    -334807.383   6835628.089   -802415.577
10 0 59648  42942.000000  0    -158178.568   6887067.454    100980.228
10 0 59648  43062.000000  0      21030.299   6815051.102   1002597.561
99
